SKYSAT-A                
1 39418U 13066C   26200.39814561  .00001439  00000+0  84470-4 0  9991
2 39418  97.3798 248.7687 0020863 198.3581 161.6900 15.13127903693357
SKYSAT-B                
1 40072U 14037D   26200.87200220  .00000570  00000+0  68683-4 0  9995
2 40072  98.3857 161.7057 0005930 158.4103 201.7363 14.88098127650822
SKYSAT-C1               
1 41601U 16040C   26200.84284056  .00004760  00000+0  13448-3 0  9999
2 41601  96.9552 230.8008 0000566 200.2206 159.9017 15.36793049562888
SKYSAT-C4               
1 41771U 16058B   26200.30766369  .00009565  00000+0  17513-3 0  9994
2 41771  96.9170 220.7540 0003540 112.6543 247.5084 15.49519373550443
SKYSAT-C5               
1 41772U 16058C   26200.58255279  .00003644  00000+0  11390-3 0  9997
2 41772  97.0451 239.7652 0003020 149.7638 210.3781 15.33753019548710
SKYSAT-C2               
1 41773U 16058D   26200.04838939  .00006875  00000+0  15928-3 0  9999
2 41773  97.0161 220.9571 0000917 329.4128  30.7067 15.42733343549961
SKYSAT-C3               
1 41774U 16058E   26200.54919936  .00013552  00000+0  21226-3 0  9990
2 41774  96.8996 230.1770 0002738 128.5680 231.5820 15.53830199551132
SKYSAT-C11              
1 42987U 17068A   26200.41278457  .00017128  00000+0  21760-3 0  9997
2 42987  97.4390 350.6929 0001420 153.6625 206.4704 15.59473968488261
SKYSAT-C10              
1 42988U 17068B   26200.82328991  .00005958  00000+0  17695-3 0  9992
2 42988  97.4545 338.0081 0001542 111.1835 248.9573 15.35171574487367
SKYSAT-C9               
1 42989U 17068C   26200.81628220  .00006975  00000+0  16403-3 0  9996
2 42989  97.4468 339.2528 0008235  29.6633 330.5080 15.42280897487780
SKYSAT-C8               
1 42990U 17068D   26200.35395888  .00005485  00000+0  15124-3 0  9992
2 42990  97.4564 337.4574 0001274 105.5249 254.6137 15.37539120487254
SKYSAT-C7               
1 42991U 17068E   26200.34857435  .00005447  00000+0  15041-3 0  9999
2 42991  97.4574 338.4439 0005321   7.1365 352.9954 15.37488793487315
SKYSAT-C6               
1 42992U 17068F   26200.82385339  .00004976  00000+0  15267-3 0  9998
2 42992  97.4612 338.7587 0004985  77.3310 282.8489 15.34215968487324
SKYSAT-C12              
1 43797U 18099AR  26200.32159478  .00009467  00000+0  17119-3 0  9993
2 43797  96.9255 222.2860 0005029  61.0315 299.1441 15.49872022426835
FLOCK 4Q-16             
1 58271U 23174R   26200.77147583  .00013257  00000+0  23385-3 0  9993
2 58271  97.3814 289.6655 0006605  63.8698 296.3232 15.50498968150621
FLOCK 4Q-11             
1 58273U 23174T   26200.80753005  .00018385  00000+0  31764-3 0  9998
2 58273  97.3849 290.3436 0006043  57.7457 302.4379 15.51018383150641
FLOCK 4Q-28             
1 58280U 23174AA  26200.77860257  .00017833  00000+0  24889-3 0  9997
2 58280  97.3874 293.0930 0004380  49.0281 311.1352 15.56935935150810
FLOCK 4Q-27             
1 58282U 23174AC  26200.77980580  .00021390  00000+0  29582-3 0  9999
2 58282  97.3803 292.4976 0003540  55.4692 304.6897 15.57147890150829
PELICAN-1               
1 58296U 23174AS  26199.23901054  .00005303  00000+0  41639-4 0  9995
2 58296  97.4011 301.5070 0006336 192.5328 167.5779 15.72007488151043
FLOCK 4Q-7              
1 58318U 23174BQ  26200.79676749  .00021138  00000+0  28787-3 0  9996
2 58318  97.3901 293.4440 0004171  25.8466 334.2997 15.57562253150820
FLOCK 4Q-2              
1 58320U 23174BS  26200.85699096  .00015090  00000+0  26164-3 0  9993
2 58320  97.3835 290.1057 0004324  36.3496 323.8049 15.50970143150665
FLOCK 4Q-9              
1 58322U 23174BU  26200.80761531  .00016578  00000+0  28181-3 0  9997
2 58322  97.3842 290.1711 0005168  35.1525 325.0067 15.51504027150646
FLOCK 4Q-4              
1 58327U 23174BZ  26200.76178079  .00013522  00000+0  24287-3 0  9995
2 58327  97.3819 289.2270 0005406  62.0541 298.1257 15.49991081150600
FLOCK 4Q-13             
1 58328U 23174CA  26200.86680543  .00015611  00000+0  25156-3 0  9998
2 58328  97.3992 292.6723 0005581  41.3014 318.8660 15.53013524150748
FLOCK 4BE-18            
1 60480U 24149N   26200.77908088  .00009958  00000+0  22929-3 0  9992
2 60480  97.3716 284.8715 0005409 132.6864 227.4840 15.42805964107331
FLOCK 4BE-7             
1 60481U 24149P   26200.75100970  .00014112  00000+0  33731-3 0  9996
2 60481  97.3744 284.1270 0004482 137.8395 222.3197 15.41594911107265
FLOCK 4BE-36            
1 60486U 24149U   26200.66828225  .00010089  00000+0  22597-3 0  9998
2 60486  97.3734 285.5066 0005091 140.2129 219.9493 15.43632130107367
FLOCK 4BE-25            
1 60487U 24149V   26200.78728336  .00008142  00000+0  20873-3 0  9996
2 60487  97.3784 284.1764 0003922 131.7493 228.4089 15.39621177107251
FLOCK 4BE-31            
1 60488U 24149W   26200.73214428  .00011890  00000+0  25167-3 0  9999
2 60488  97.3787 286.5284 0004083 139.5117 220.6436 15.45268472107405
FLOCK 4BE-20            
1 60489U 24149X   26200.76659840  .00006765  00000+0  17799-3 0  9991
2 60489  97.3682 282.9523 0005317 140.6690 219.4943 15.38882243107225
FLOCK 4BE-23            
1 60490U 24149Y   26200.76581285  .00007685  00000+0  20482-3 0  9995
2 60490  97.3768 283.3443 0004988 144.0060 216.1522 15.38437927107200
FLOCK 4BE-17            
1 60492U 24149AA  26200.76916735  .00009345  00000+0  23123-3 0  9999
2 60492  97.3759 284.4147 0004584 134.8768 225.2852 15.40656480107273
FLOCK 4BE-22            
1 60494U 24149AC  26200.78599756  .00031230  00000+0  72931-3 0  9992
2 60494  97.3722 284.6756 0005028 143.6358 216.5231 15.42128028107324
FLOCK 4BE-34            
1 60495U 24149AD  26200.73880112  .00009122  00000+0  21571-3 0  9996
2 60495  97.3773 285.4711 0005166 148.7743 211.3812 15.42034402107340
FLOCK 4BE-32            
1 60497U 24149AF  26200.74950166  .00010710  00000+0  24334-3 0  9991
2 60497  97.3708 285.0520 0005256 146.7057 213.4522 15.43185411107350
FLOCK 4BE-11            
1 60501U 24149AK  26200.72719252  .00011128  00000+0  24613-3 0  9998
2 60501  97.3686 285.2900 0005312 145.9744 214.1846 15.43976188107370
FLOCK 4BE-24            
1 60505U 24149AP  26200.77500975  .00011971  00000+0  26253-3 0  9995
2 60505  97.3698 285.6097 0005349 156.6131 203.5362 15.44211543107392
TANAGER-1               
1 60507U 24149AR  26200.88034238  .00000178  00000+0  57659-5 0  9996
2 60507  97.2323 294.9852 0001861 135.2559 224.8840 15.43941608108087
FLOCK 4BE-29            
1 60509U 24149AT  26200.76168911  .00024880  00000+0  51583-3 0  9995
2 60509  97.3800 287.1558 0003877 165.2767 194.8596 15.45716022107445
FLOCK 4BE-2             
1 60511U 24149AV  26200.75888241  .00039242  00000+0  55771-3 0  9993
2 60511  97.3816 289.0717 0005504 160.7026 199.4439 15.56281614107566
FLOCK 4BE-13            
1 60512U 24149AW  26200.79047602  .00008084  00000+0  18727-3 0  9996
2 60512  97.3709 285.5587 0005401 142.5347 217.6278 15.42692837107397
FLOCK 4BE-27            
1 60513U 24149AX  26200.79470000  .00004994  00000+0  14962-3 0  9992
2 60513  97.3816 282.6724 0004369 167.5302 192.6050 15.34964589107148
FLOCK 4BE-9             
1 60514U 24149AY  26200.81168059  .00011050  00000+0  26366-3 0  9996
2 60514  97.3785 285.4200 0003938 159.1744 200.9664 15.41712161107343
FLOCK 4BE-6             
1 60516U 24149BA  26200.67219030  .00008139  00000+0  20344-3 0  9992
2 60516  97.3778 284.5741 0004796 160.3202 199.8231 15.40391844107271
FLOCK 4BE-14            
1 60517U 24149BB  26200.75442546  .00010020  00000+0  23738-3 0  9994
2 60517  97.3683 284.8256 0005732 162.6955 197.4488 15.41946686107349
FLOCK 4BE-1             
1 60518U 24149BC  26200.80071834  .00010195  00000+0  22849-3 0  9994
2 60518  97.3769 286.2680 0005383 162.0046 198.1393 15.43608192107408
FLOCK 4BE-28            
1 60519U 24149BD  26200.76261617  .00024971  00000+0  50330-3 0  9993
2 60519  97.3739 287.0624 0005476 162.1478 197.9965 15.46533081107472
FLOCK 4BE-5             
1 60559U 24149CV  26200.76023760  .00009649  00000+0  23498-3 0  9992
2 60559  97.3832 285.0929 0004412 158.7520 201.3911 15.41130217107294
FLOCK 4BE-3             
1 60561U 24149CX  26200.78673811  .00010434  00000+0  24270-3 0  9998
2 60561  97.3685 285.0320 0005331 155.4929 204.6573 15.42489838107361
FLOCK 4BE-19            
1 60563U 24149CZ  26200.76649131  .00015935  00000+0  33039-3 0  9990
2 60563  97.3731 286.7209 0006127 161.4217 198.7257 15.45794537107450
FLOCK 4G-8              
1 62613U 25009E   26200.78510484  .00005534  00000+0  19144-3 0  9999
2 62613  97.3995 282.6642 0004528 176.3486 183.7789 15.30293836 83909
FLOCK 4G-13             
1 62621U 25009N   26200.74901157  .00052325  00000+0  95012-3 0  9993
2 62621  97.3936 284.7143 0006706 186.1653 173.9517 15.49384247 84039
FLOCK 4G-9              
1 62622U 25009P   26200.74757418  .00004593  00000+0  16803-3 0  9998
2 62622  97.3950 281.4670 0004533 188.1851 171.9316 15.28553247 83830
FLOCK 4G-7              
1 62624U 25009R   26200.77031220  .00005338  00000+0  18686-3 0  9998
2 62624  97.3931 281.9143 0003064 168.4302 191.7009 15.29925487 83885
FLOCK 4G-12             
1 62625U 25009S   26200.76587185  .00005831  00000+0  20446-3 0  9999
2 62625  97.4010 282.4638 0004663 174.0856 186.0441 15.29827955 83881
FLOCK 4G-11             
1 62629U 25009W   26200.75040887  .00005815  00000+0  20326-3 0  9994
2 62629  97.3912 282.0016 0003118 171.2872 188.8423 15.29936764 83892
PELICAN-2               
1 62631U 25009Y   26199.22155211 -.00000010  00000+0  17209-5 0  9995
2 62631  97.2052 289.7302 0002259 115.4966 244.6515 15.40638954 84336
FLOCK 4G-26             
1 62633U 25009AA  26200.76341157  .00006562  00000+0  22762-3 0  9990
2 62633  97.4007 282.6241 0004074 164.2026 195.9343 15.30132845 83894
FLOCK 4G-28             
1 62634U 25009AB  26200.77880591  .00004577  00000+0  13580-3 0  9994
2 62634  97.4018 285.4611 0002526 152.1137 208.0242 15.35325452 84087
FLOCK 4G-24             
1 62637U 25009AE  26200.77380889  .00005394  00000+0  18595-3 0  9991
2 62637  97.4015 282.9419 0004023 153.0253 207.1197 15.30418593 83912
